AXXX HaskoVarioGPS
HFDTE060626
HFPLTPILOTINCHARGE: David Hasko
HFGTYGLIDERTYPE: OZONE Zeolite 2
HFDTM100GPSDATUM: WGS-1984
HFFTYFRTYPE: HaskoVarioGPS
B1510244720679N01311307EA0055400575
B1510254720681N01311310EA0055400567
B1510264720679N01311308EA0055300590
B1510294720680N01311308EA0055400580
B1510304720680N01311307EA0055400583
B1510314720681N01311307EA0055400582
B1510324720680N01311307EA0055400581
B1510334720679N01311306EA0055400581
B1510344720679N01311305EA0055400579
B1510354720677N01311305EA0055400581
B1510364720679N01311304EA0055400577
B1510374720678N01311304EA0055400579
B1510384720678N01311304EA0055400582
B1510394720679N01311304EA0055400582
B1510404720678N01311303EA0055400581
B1510414720679N01311304EA0055300581
B1510424720679N01311303EA0055400582
B1510434720679N01311304EA0055300578
B1510444720673N01311302EA0055400590
B1510454720674N01311304EA0055400588
G4zLlrcbV09aEUhLc66lqa+gjKZM=
