AXXX HaskoVarioGPS
HFDTE060626
HFPLTPILOTINCHARGE: David Hasko
HFGTYGLIDERTYPE: OZONE Zeolite 2
HFDTM100GPSDATUM: WGS-1984
HFFTYFRTYPE: HaskoVarioGPS
B1502584720680N01311307EA0055800554
B1502594720681N01311307EA0055800552
B1503004720683N01311311EA0055800540
B1503014720683N01311313EA0055800531
B1503024720675N01311303EA0055800554
B1503044720683N01311309EA0055800559
B1503054720676N01311304EA0055800562
B1503064720675N01311304EA0055800564
B1503074720678N01311306EA0055800567
B1503084720675N01311304EA0055800572
B1503094720677N01311305EA0055800572
B1503104720677N01311305EA0055800572
B1503114720677N01311305EA0055800572
B1503124720675N01311304EA0055800573
B1503134720674N01311304EA0055800574
B1503144720674N01311303EA0055800574
B1503154720674N01311303EA0055800576
B1503164720675N01311304EA0055800574
B1503174720679N01311307EA0055800571
B1503184720678N01311308EA0055800573
B1503194720680N01311309EA0055800572
B1503204720677N01311307EA0055800576
B1503214720678N01311309EA0055800573
B1503224720678N01311309EA0055800574
B1503234720677N01311308EA0055800574
B1503244720674N01311306EA0055800575
B1503254720675N01311307EA0055800574
B1503264720675N01311307EA0055800573
B1503274720676N01311307EA0055800572
B1503284720676N01311307EA0055800571
B1503294720676N01311307EA0055800571
B1503304720676N01311307EA0055800571
B1503314720676N01311307EA0055800571
B1503324720676N01311307EA0055800571
B1503334720676N01311307EA0055900571
B1503344720676N01311307EA0055800571
B1503354720676N01311307EA0055800571
B1503364720676N01311307EA0055900571
B1503374720676N01311307EA0055900571
B1503384720679N01311307EA0055900563
B1503394720679N01311307EA0055900563
B1503404720680N01311307EA0055900562
B1503414720680N01311306EA0055800562
B1503424720680N01311306EA0055900561
B1503434720680N01311306EA0055900560
B1503444720679N01311306EA0055900559
B1503454720679N01311307EA0055900558
B1503464720679N01311307EA0055900558
B1503474720678N01311307EA0055900557
G3Hg3nOPZcsCazd55x1p1grgSsw0=
