AXXX HaskoVarioGPS
HFDTE060626
HFPLTPILOTINCHARGE: David Hasko
HFGTYGLIDERTYPE: OZONE Zeolite 2
HFDTM100GPSDATUM: WGS-1984
HFFTYFRTYPE: HaskoVarioGPS
B1510574720685N01311309EA0055300580
B1510584720681N01311305EA0055300580
B1510594720678N01311305EA0055400586
B1511004720682N01311306EA0055400583
B1511014720681N01311306EA0055400584
B1511024720680N01311304EA0055400583
B1511034720680N01311305EA0055400583
B1511044720678N01311308EA0055300588
B1511054720680N01311305EA0055300582
B1511064720678N01311303EA0055400583
B1511074720679N01311305EA0055300581
B1511084720679N01311306EA0055300579
B1511094720678N01311307EA0055400576
B1511104720680N01311307EA0055300578
B1511114720683N01311309EA0055400569
B1511124720682N01311309EA0055300574
B1511134720684N01311309EA0055300575
B1511144720681N01311309EA0055300576
B1511154720682N01311307EA0055300578
B1511164720683N01311307EA0055300575
B1511174720682N01311306EA0055300580
B1511184720682N01311307EA0055300579
B1511194720680N01311306EA0055300577
B1511204720680N01311306EA0055300577
B1511214720679N01311306EA0055300576
B1511224720677N01311305EA0055400577
B1511234720674N01311303EA0055300577
B1511244720673N01311303EA0055300578
B1511254720673N01311302EA0055300579
B1511264720673N01311302EA0055300579
B1511274720673N01311302EA0055400579
B1511284720673N01311302EA0055400579
B1511294720673N01311302EA0055300579
B1511304720673N01311302EA0055300579
B1511314720673N01311302EA0055300579
B1511324720673N01311302EA0055400579
B1511334720673N01311302EA0055300579
B1511344720673N01311302EA0055300579
B1511354720673N01311302EA0055300579
B1511364720673N01311302EA0055300579
B1511374720673N01311302EA0055400579
B1511384720673N01311302EA0055300579
GHYJMoIRmlwoCBEdBWyoyeBnPJUo=
